[
    {
        "name": "Mickaël Féval",
        "zipcode": "13100",
        "city": "Aix-en-Provence",
        "adress": "11 Petite-Rue-St-Jean 13100 Aix-en-Provence",
        "stars": "1",
        "id": "77134"
    },
    {
        "name": "Hostellerie de Plaisance",
        "zipcode": "33330",
        "city": "Saint-Emilion",
        "adress": "5 place du Clocher 33330 Saint-Emilion",
        "stars": "2",
        "id": "4904"
    },
    {
        "name": "Le Cloître",
        "zipcode": "04300",
        "city": "Mane",
        "adress": "Le Cloitre 04300 Mane",
        "stars": "1",
        "id": "11050"
    },
    {
        "name": "Le Moulin du Roc",
        "zipcode": "24530",
        "city": "Champagnac-de-Belair",
        "adress": "Avenue Eugène Le Roy 24530 Champagnac-de-Belair",
        "stars": "1",
        "id": "7133"
    },
    {
        "name": "Paloma",
        "zipcode": "06250",
        "city": "Mougins",
        "adress": "47 Avenue du Moulin de la Croix 06250 Mougins",
        "stars": "2",
        "id": "38822"
    },
    {
        "name": "La Tour des Vents",
        "zipcode": "24240",
        "city": "Monbazillac",
        "adress": "Le Moulin de Malfourat 24240 Monbazillac",
        "stars": "1",
        "id": "75533"
    },
    {
        "name": "Hostellerie de l'Abbaye de la Celle",
        "zipcode": "83170",
        "city": "La Celle",
        "adress": "10 Place Général de Gaulle 83170 La Celle",
        "stars": "1",
        "id": "25901"
    },
    {
        "name": "L'Almandin",
        "zipcode": "66750",
        "city": "Saint-Cyprien",
        "adress": "Boulevard de l'Almandin 66750 Saint-Cyprien",
        "stars": "1",
        "id": "566"
    },
    {
        "name": "Le Relais Bernard Loiseau",
        "zipcode": "21210",
        "city": "Saulieu",
        "adress": "2, rue d'Argentine 21210 Saulieu",
        "stars": "2",
        "id": "3303"
    },
    {
        "name": "Le Clarence",
        "zipcode": "75008",
        "city": "Paris 08",
        "adress": "31 Avenue Franklin Delano Roosevelt 75008 Paris 08",
        "stars": "2",
        "id": "74933"
    },
    {
        "name": "Quinsou",
        "zipcode": "75006",
        "city": "Paris",
        "adress": "33 r. de l'Abbé-Grégoire 75006 Paris",
        "stars": "1",
        "id": "317277"
    },
    {
        "name": "Auberge du Cheval Blanc",
        "zipcode": "67510",
        "city": "Lembach",
        "adress": "4 Route de Wissembourg 67510 Lembach",
        "stars": "2",
        "id": "2310"
    },
    {
        "name": "Ivan Vautier",
        "zipcode": "14000",
        "city": "Caen",
        "adress": "3 avenue Henry-Chéron 14000 Caen",
        "stars": "1",
        "id": "26460"
    },
    {
        "name": "L'Aromate",
        "zipcode": "06000",
        "city": "Nice",
        "adress": "2 r. Gustave Deloye 06000 Nice",
        "stars": "1",
        "id": "38154"
    },
    {
        "name": "La Grignotière",
        "zipcode": "59590",
        "city": "Raismes",
        "adress": "6 Rue Jean Jaures 59590 Raismes",
        "stars": "1",
        "id": "43399"
    },
    {
        "name": "Garopapilles",
        "zipcode": "33000",
        "city": "Bordeaux",
        "adress": "62 r. Abbé-de-L'Epée 33000 Bordeaux",
        "stars": "1",
        "id": "276775"
    },
    {
        "name": "Garance",
        "zipcode": "75007",
        "city": "Paris",
        "adress": "34 r. St-Dominique 75007 Paris",
        "stars": "1",
        "id": "25701"
    },
    {
        "name": "La Vague d'Or",
        "zipcode": "83990",
        "city": "Saint-Tropez",
        "adress": "Plage de Bouillabaisse 83990 Saint-Tropez",
        "stars": "3",
        "id": "26660"
    },
    {
        "name": "Le Castellaras",
        "zipcode": "83440",
        "city": "Fayence",
        "adress": "461 chemin Peymeyan 83440 Fayence",
        "stars": "1",
        "id": "204609"
    },
    {
        "name": "Christopher Coutanceau",
        "zipcode": "17000",
        "city": "La Rochelle",
        "adress": "Promenade de la Concurrence 17000 La Rochelle",
        "stars": "2",
        "id": "2998"
    },
    {
        "name": "Le Relais des Moines",
        "zipcode": "83460",
        "city": "Les Arcs",
        "adress": "route de Ste-Roseline 83460 Les Arcs",
        "stars": "1",
        "id": "132"
    }
]