[
    {
        "name": "La Liégeoise",
        "zipcode": "62930",
        "city": "Wimereux",
        "adress": "digue de mer 62930 Wimereux",
        "stars": "1"
    },
    {
        "name": "Le Violon d'Ingres",
        "zipcode": "75007",
        "city": "Paris",
        "adress": "135 Rue Saint-Dominique 75007 Paris",
        "stars": "1"
    },
    {
        "name": "Le Moulin du Roc",
        "zipcode": "24530",
        "city": "Champagnac-de-Belair",
        "adress": "Avenue Eugène Le Roy 24530 Champagnac-de-Belair",
        "stars": "1"
    },
    {
        "name": "Il Cortile",
        "zipcode": "68100",
        "city": "Mulhouse",
        "adress": "11 r. des Franciscains 68100 Mulhouse",
        "stars": "1"
    },
    {
        "name": "Elsa",
        "zipcode": "06190",
        "city": "Roquebrune Cap-Martin",
        "adress": "Monte-Carlo Beach - Avenue Princesse Grace 06190 Roquebrune Cap-Martin",
        "stars": "1"
    },
    {
        "name": "Mère Brazier",
        "zipcode": "69001",
        "city": "LYON",
        "adress": "12 rue Royale 69001 LYON",
        "stars": "2"
    },
    {
        "name": "L'Atelier de Jean-Luc Rabanel",
        "zipcode": "13200",
        "city": "Arles",
        "adress": "7 r. des Carmes 13200 Arles",
        "stars": "2"
    },
    {
        "name": "Le Figuier de St-Esprit",
        "zipcode": "06600",
        "city": "Antibes",
        "adress": "7, Promenade Amiral de Grasse 06600 Antibes",
        "stars": "1"
    },
    {
        "name": "La Maison des Bois - Marc Veyrat",
        "zipcode": "74230",
        "city": "Manigod",
        "adress": "Chemin Rural de Manigod au Col de la Croix Fry 74230 Manigod",
        "stars": "3"
    },
    {
        "name": "Dan B. - La Table de Ventabren",
        "zipcode": "13122",
        "city": "Ventabren",
        "adress": "r. F. -Mistral 13122 Ventabren",
        "stars": "1"
    },
    {
        "name": "1217",
        "zipcode": "69620",
        "city": "Bagnols",
        "adress": "le bourg 69620 Bagnols",
        "stars": "1"
    },
    {
        "name": "Le Cloître",
        "zipcode": "04300",
        "city": "Mane",
        "adress": "Le Cloitre 04300 Mane",
        "stars": "1"
    },
    {
        "name": "L'Almandin",
        "zipcode": "66750",
        "city": "Saint-Cyprien",
        "adress": "Boulevard de l'Almandin 66750 Saint-Cyprien",
        "stars": "1"
    },
    {
        "name": "Têtedoie",
        "zipcode": "69005",
        "city": "Lyon 05",
        "adress": "4 Rue Professeur Pierre Marion 69005 Lyon 05",
        "stars": "1"
    },
    {
        "name": "Sur Mesure par Thierry Marx",
        "zipcode": "75001",
        "city": "Paris",
        "adress": "251 Rue Saint Honoré 75001 Paris",
        "stars": "2"
    },
    {
        "name": "Le Saint-James",
        "zipcode": "33270",
        "city": "BOULIAC",
        "adress": "3 pl. Camille-Hostein 33270 BOULIAC",
        "stars": "1"
    },
    {
        "name": "L'Impertinent",
        "zipcode": "64200",
        "city": "Biarritz",
        "adress": "5, rue d'Alsace 64200 Biarritz",
        "stars": "1"
    },
    {
        "name": "Akrame",
        "zipcode": "75008",
        "city": "Paris",
        "adress": "7 r. Tronchet 75008 Paris",
        "stars": "1"
    },
    {
        "name": "Paloma",
        "zipcode": "06250",
        "city": "Mougins",
        "adress": "47 Avenue du Moulin de la Croix 06250 Mougins",
        "stars": "2"
    },
    {
        "name": "Patrick Jeffroy",
        "zipcode": "29660",
        "city": "Carantec",
        "adress": "20 rue du Kelenn 29660 Carantec",
        "stars": "2"
    },
    {
        "name": "Maison Jeunet",
        "zipcode": "39600",
        "city": "Arbois",
        "adress": "9 r. de l'Hôtel-de-Ville 39600 Arbois",
        "stars": "2"
    },
    {
        "name": "Flaveurs",
        "zipcode": "26000",
        "city": "Valence",
        "adress": "32 Grande-Rue 26000 Valence",
        "stars": "1"
    },
    {
        "name": "Aida",
        "zipcode": "75007",
        "city": "Paris 07",
        "adress": "1 r. Pierre Leroux 75007 Paris 07",
        "stars": "1"
    },
    {
        "name": "Le Georges",
        "zipcode": "28000",
        "city": "CHARTRES",
        "adress": "22 pl. des Épars 28000 CHARTRES",
        "stars": "1"
    },
    {
        "name": "Mathieu Pacaud - Histoires",
        "zipcode": "75016",
        "city": "Paris",
        "adress": "85 Avenue Kléber 75016 Paris",
        "stars": "2"
    },
    {
        "name": "Casadelmar",
        "zipcode": "20137",
        "city": "Porto-Vecchio",
        "adress": "Route de la Plage de Palombaggia 20137 Porto-Vecchio",
        "stars": "2"
    },
    {
        "name": "Le Domaine de la Corniche",
        "zipcode": "78270",
        "city": "Rolleboise",
        "adress": "5 rte de la Corniche 78270 Rolleboise",
        "stars": "1"
    },
    {
        "name": "L'Amphitryon",
        "zipcode": "31770",
        "city": "Colomiers",
        "adress": "chemin de Gramont 31770 Colomiers",
        "stars": "1"
    },
    {
        "name": "Hostellerie de l'Abbaye de la Celle",
        "zipcode": "83170",
        "city": "La Celle",
        "adress": "10 Place Général de Gaulle 83170 La Celle",
        "stars": "1"
    },
    {
        "name": "La Tour des Vents",
        "zipcode": "24240",
        "city": "Monbazillac",
        "adress": "Le Moulin de Malfourat 24240 Monbazillac",
        "stars": "1"
    },
    {
        "name": "Le Relais Bernard Loiseau",
        "zipcode": "21210",
        "city": "Saulieu",
        "adress": "2, rue d'Argentine 21210 Saulieu",
        "stars": "2"
    },
    {
        "name": "Le Jardin des Plumes",
        "zipcode": "27620",
        "city": "Giverny",
        "adress": "1 Rue du Milieu 27620 Giverny",
        "stars": "1"
    },
    {
        "name": "Kasbür",
        "zipcode": "67700",
        "city": "Monswiller",
        "adress": "8 Rue de Dettwiller 67700 Monswiller",
        "stars": "1"
    },
    {
        "name": "Assa",
        "zipcode": "41000",
        "city": "Blois",
        "adress": "189 Quai Ulysse Besnard 41000 Blois",
        "stars": "1"
    },
    {
        "name": "Le Saison",
        "zipcode": "35760",
        "city": "Saint-Grégoire",
        "adress": "1 imp. du Vieux-Bourg 35760 Saint-Grégoire",
        "stars": "1"
    },
    {
        "name": "I Salti",
        "zipcode": "20226",
        "city": "Belgodère",
        "adress": "route du Reginu 20226 Belgodère",
        "stars": "1"
    },
    {
        "name": "Le Farçon",
        "zipcode": "73125",
        "city": "La Tania",
        "adress": "immeuble la Kalinka 73125 La Tania",
        "stars": "1"
    },
    {
        "name": "Le Taillevent",
        "zipcode": "75008",
        "city": "Paris",
        "adress": "15 Rue Lamennais 75008 Paris",
        "stars": "2"
    },
    {
        "name": "Auberge du Cheval Blanc",
        "zipcode": "67510",
        "city": "Lembach",
        "adress": "4 Route de Wissembourg 67510 Lembach",
        "stars": "2"
    },
    {
        "name": "Le Quinzième - Cyril Lignac",
        "zipcode": "75015",
        "city": "Paris",
        "adress": "14 rue Cauchy 75015 Paris",
        "stars": "1"
    },
    {
        "name": "La Maison d'à Côté",
        "zipcode": "41350",
        "city": "Montlivault",
        "adress": "17 rue de Chambord 41350 Montlivault",
        "stars": "1"
    },
    {
        "name": "Maison Decoret",
        "zipcode": "03200",
        "city": "Vichy",
        "adress": "15 rue du Parc 03200 Vichy",
        "stars": "1"
    },
    {
        "name": "Georges Blanc",
        "zipcode": "01540",
        "city": "Vonnas",
        "adress": "pl. du Marché 01540 Vonnas",
        "stars": "3"
    },
    {
        "name": "La Côte Saint-Jacques",
        "zipcode": "89300",
        "city": "Joigny",
        "adress": "14 faubourg de Paris 89300 Joigny",
        "stars": "2"
    },
    {
        "name": "L'Esquisse",
        "zipcode": "74000",
        "city": "Annecy",
        "adress": "21 rue Royale 74000 Annecy",
        "stars": "1"
    },
    {
        "name": "Auberge de la Tour",
        "zipcode": "15220",
        "city": "MARCOLES",
        "adress": "Place de la Fontaine 15220 MARCOLES",
        "stars": "1"
    },
    {
        "name": "L'Arcane",
        "zipcode": "75018",
        "city": "Paris",
        "adress": "39 Rue Lamarck 75018 Paris",
        "stars": "1"
    },
    {
        "name": "Radio",
        "zipcode": "63400",
        "city": "Chamalières",
        "adress": "43 av. P. et M.-Curie 63400 Chamalières",
        "stars": "1"
    },
    {
        "name": "L'Amaryllis",
        "zipcode": "71100",
        "city": "Saint-Rémy",
        "adress": "chemin de Martorey 71100 Saint-Rémy",
        "stars": "1"
    },
    {
        "name": "Domaine des Hauts de Loire",
        "zipcode": "41150",
        "city": "Onzain",
        "adress": "79 rue Gilbert Navard 41150 Onzain",
        "stars": "2"
    },
    {
        "name": "Le Castellaras",
        "zipcode": "83440",
        "city": "Fayence",
        "adress": "461 chemin Peymeyan 83440 Fayence",
        "stars": "1"
    },
    {
        "name": "L'Axel",
        "zipcode": "77300",
        "city": "Fontainebleau",
        "adress": "43 r. de France 77300 Fontainebleau",
        "stars": "1"
    },
    {
        "name": "L'Étang du Moulin",
        "zipcode": "25210",
        "city": "Bonnétage",
        "adress": "5 chemin de l'Etang du Moulin 25210 Bonnétage",
        "stars": "1"
    },
    {
        "name": "Une Île",
        "zipcode": "49000",
        "city": "Angers",
        "adress": "9 r. Max-Richard 49000 Angers",
        "stars": "1"
    },
    {
        "name": "L'Arnsbourg",
        "zipcode": "57230",
        "city": "Baerenthal",
        "adress": "Untermuhlthal 57230 Baerenthal",
        "stars": "1"
    },
    {
        "name": "Christopher Coutanceau",
        "zipcode": "17000",
        "city": "La Rochelle",
        "adress": "Promenade de la Concurrence 17000 La Rochelle",
        "stars": "2"
    },
    {
        "name": "Le Millénaire",
        "zipcode": "51100",
        "city": "Reims",
        "adress": "4 rue Bertin 51100 Reims",
        "stars": "1"
    },
    {
        "name": "Le Beaulieu",
        "zipcode": "72000",
        "city": "Le Mans",
        "adress": "34 Bis Place République 72000 Le Mans",
        "stars": "1"
    },
    {
        "name": "Auberge La Fenière",
        "zipcode": "84160",
        "city": "Cadenet",
        "adress": "D943 84160 Cadenet",
        "stars": "1"
    },
    {
        "name": "Les Trois Rochers",
        "zipcode": "29120",
        "city": "Sainte-Marine",
        "adress": "16 rue du Phare 29120 Sainte-Marine",
        "stars": "1"
    },
    {
        "name": "Stéphane Carbone",
        "zipcode": "14000",
        "city": "Caen",
        "adress": "14 r. de Courtonne 14000 Caen",
        "stars": "1"
    },
    {
        "name": "Les Trois Soleils de Montal",
        "zipcode": "46400",
        "city": "Saint-Céré",
        "adress": "St-Jean-Lespinasse 46400 Saint-Céré",
        "stars": "1"
    },
    {
        "name": "La Coopérative",
        "zipcode": "66720",
        "city": "Bélesta",
        "adress": "2A Route de Caladroy 66720 Bélesta",
        "stars": "1"
    },
    {
        "name": "La Promenade",
        "zipcode": "37350",
        "city": "Le Petit-Pressigny",
        "adress": "11 rue du Savoureulx 37350 Le Petit-Pressigny",
        "stars": "1"
    },
    {
        "name": "Jérôme Nutile - Le Mas de Boudan",
        "zipcode": "30000",
        "city": "Nîmes",
        "adress": "351 Chemin du Mas de Boudan 30000 Nîmes",
        "stars": "1"
    },
    {
        "name": "Ô Flaveurs",
        "zipcode": "74140",
        "city": "Douvaine",
        "adress": "Château de Chilly 74140 Douvaine",
        "stars": "1"
    },
    {
        "name": "Auberge des Templiers",
        "zipcode": "45290",
        "city": "Les Bézards",
        "adress": "D2007 45290 Les Bézards",
        "stars": "1"
    },
    {
        "name": "Entre Vigne et Garrigue",
        "zipcode": "30131",
        "city": "Pujaut",
        "adress": "600 route de Saint Bruno 30131 Pujaut",
        "stars": "1"
    },
    {
        "name": "Benoit",
        "zipcode": "75004",
        "city": "Paris 04",
        "adress": "20 Rue St-Martin 75004 Paris 04",
        "stars": "1"
    },
    {
        "name": "Hostellerie la Montagne",
        "zipcode": "52330",
        "city": "COLOMBEY-LES-DEUX-EGLISES",
        "adress": "10 rue Pisseloup 52330 COLOMBEY-LES-DEUX-EGLISES",
        "stars": "1"
    },
    {
        "name": "La Table de Patrick Raingeard",
        "zipcode": "06360",
        "city": "EZE-BORD-DE-MER",
        "adress": "1312 av. Raymond-Poincaré 06360 EZE-BORD-DE-MER",
        "stars": "1"
    },
    {
        "name": "Au Vieux Couvent",
        "zipcode": "67860",
        "city": "Rhinau",
        "adress": "6 r. des Chanoines 67860 Rhinau",
        "stars": "1"
    },
    {
        "name": "Pont de l'Ouysse",
        "zipcode": "46200",
        "city": "Lacave",
        "adress": "D23 46200 Lacave",
        "stars": "1"
    },
    {
        "name": "La Madeleine",
        "zipcode": "89100",
        "city": "Sens",
        "adress": "1 Rue Alsace-Lorraine 89100 Sens",
        "stars": "1"
    },
    {
        "name": "Le Coquillage",
        "zipcode": "35350",
        "city": "Saint-Méloir-des-Ondes",
        "adress": "Lieu-dit Le Buot 35350 Saint-Méloir-des-Ondes",
        "stars": "1"
    },
    {
        "name": "Auberge La Pomme d'Api",
        "zipcode": "29250",
        "city": "Saint-Pol-de-Léon",
        "adress": "49 r. Verderel 29250 Saint-Pol-de-Léon",
        "stars": "1"
    },
    {
        "name": "Raphaël Vionnet",
        "zipcode": "74200",
        "city": "Thonon-les-Bains",
        "adress": "43 Avenue du Général Leclerc 74200 Thonon-les-Bains",
        "stars": "1"
    },
    {
        "name": "Relais de la Poste",
        "zipcode": "67610",
        "city": "LA-WANTZENAU",
        "adress": "21 rue du Gén. -de-Gaulle 67610 LA-WANTZENAU",
        "stars": "1"
    },
    {
        "name": "Le Raisin",
        "zipcode": "01190",
        "city": "Pont-de-Vaux",
        "adress": "2 pl. M. -Poisat 01190 Pont-de-Vaux",
        "stars": "1"
    },
    {
        "name": "Le Petit Hôtel du Grand Large",
        "zipcode": "56510",
        "city": "Portivy",
        "adress": "11 quai St-Ivy 56510 Portivy",
        "stars": "1"
    },
    {
        "name": "Le Patio",
        "zipcode": "33120",
        "city": "Arcachon",
        "adress": "10 bd de la Plage 33120 Arcachon",
        "stars": "1"
    },
    {
        "name": "Le Clarence",
        "zipcode": "75008",
        "city": "Paris 08",
        "adress": "31 Avenue Franklin Delano Roosevelt 75008 Paris 08",
        "stars": "2"
    },
    {
        "name": "Ivan Vautier",
        "zipcode": "14000",
        "city": "Caen",
        "adress": "3 avenue Henry-Chéron 14000 Caen",
        "stars": "1"
    },
    {
        "name": "Lamartine",
        "zipcode": "73370",
        "city": "Le Bourget du Lac",
        "adress": "Route du Tunnel du Chat 73370 Le Bourget du Lac",
        "stars": "1"
    },
    {
        "name": "Maximin Hellio",
        "zipcode": "14800",
        "city": "DEAUVILLE",
        "adress": "64 Rue Gambetta 14800 DEAUVILLE",
        "stars": "1"
    },
    {
        "name": "Cyril Attrazic",
        "zipcode": "48130",
        "city": "Aumont-Aubrac",
        "adress": "10 rte du Languedoc 48130 Aumont-Aubrac",
        "stars": "1"
    },
    {
        "name": "Le Relais des Moines",
        "zipcode": "83460",
        "city": "Les Arcs",
        "adress": "route de Ste-Roseline 83460 Les Arcs",
        "stars": "1"
    },
    {
        "name": "JAN",
        "zipcode": "06000",
        "city": "Nice",
        "adress": "12 Rue Lascaris 06000 Nice",
        "stars": "1"
    },
    {
        "name": "L'Oasis",
        "zipcode": "06210",
        "city": "La Napoule",
        "adress": "6 rue Jean-Honoré Carle 06210 La Napoule",
        "stars": "2"
    },
    {
        "name": "Le Pergolèse",
        "zipcode": "75116",
        "city": "Paris",
        "adress": "40 Rue Pergolèse 75116 Paris",
        "stars": "1"
    },
    {
        "name": "Greuze",
        "zipcode": "71700",
        "city": "Tournus",
        "adress": "1 r. A. Thibaudet 71700 Tournus",
        "stars": "1"
    },
    {
        "name": "L'Atelier d'Edmond",
        "zipcode": "73150",
        "city": "Val-d'Isère",
        "adress": "au Fornet 73150 Val-d'Isère",
        "stars": "2"
    },
    {
        "name": "Le Mas du Langoustier",
        "zipcode": "83400",
        "city": "Hyères",
        "adress": " 83400 Hyères",
        "stars": "1"
    },
    {
        "name": "Le Corot",
        "zipcode": "92410",
        "city": "VILLE-D'AVRAY",
        "adress": "55 Rue de Versailles 92410 VILLE-D'AVRAY",
        "stars": "1"
    },
    {
        "name": "Quinsou",
        "zipcode": "75006",
        "city": "Paris",
        "adress": "33 r. de l'Abbé-Grégoire 75006 Paris",
        "stars": "1"
    },
    {
        "name": "Jean Sulpice",
        "zipcode": "74290",
        "city": "Talloires",
        "adress": "303 rte du Port 74290 Talloires",
        "stars": "2"
    },
    {
        "name": "La Table de la Ferme",
        "zipcode": "20100",
        "city": "Sartène",
        "adress": "Vallée de l'Ortolo 20100 Sartène",
        "stars": "1"
    },
    {
        "name": "Baumanière 1850",
        "zipcode": "73120",
        "city": "Courchevel 1850",
        "adress": "rte de Bellecôte 73120 Courchevel 1850",
        "stars": "1"
    },
    {
        "name": "Transparence \"La Table de Patrick Fréchin\"",
        "zipcode": "54000",
        "city": "Nancy",
        "adress": "28 r. Stanislas 54000 Nancy",
        "stars": "1"
    },
    {
        "name": "Étude",
        "zipcode": "75016",
        "city": "Paris",
        "adress": "14 r. Bouquet-de-Longchamp 75016 Paris",
        "stars": "1"
    },
    {
        "name": "Mickaël Féval",
        "zipcode": "13100",
        "city": "Aix-en-Provence",
        "adress": "11 Petite-Rue-St-Jean 13100 Aix-en-Provence",
        "stars": "1"
    },
    {
        "name": "La Vieille Tour",
        "zipcode": "22190",
        "city": "Plérin",
        "adress": "75 r. de la Tour 22190 Plérin",
        "stars": "1"
    },
    {
        "name": "Clovis",
        "zipcode": "06140",
        "city": "Tourrettes-sur-Loup",
        "adress": "21 Grand-Rue 06140 Tourrettes-sur-Loup",
        "stars": "1"
    },
    {
        "name": "Le St-Martin",
        "zipcode": "25200",
        "city": "Montbéliard",
        "adress": "1 r. du Gén.-Leclerc 25200 Montbéliard",
        "stars": "1"
    },
    {
        "name": "Maison Crouzil et Hôtel L'Écrin",
        "zipcode": "22130",
        "city": "Plancoët",
        "adress": "20 les Quais 22130 Plancoët",
        "stars": "1"
    },
    {
        "name": "La Fourchette du Printemps",
        "zipcode": "75017",
        "city": "Paris",
        "adress": "30 r. du Printemps 75017 Paris",
        "stars": "1"
    },
    {
        "name": "Allium",
        "zipcode": "29000",
        "city": "Quimper",
        "adress": "88 bd de Créac'h-Gwen 29000 Quimper",
        "stars": "1"
    },
    {
        "name": "À Contre Sens",
        "zipcode": "14000",
        "city": "Caen",
        "adress": "8-10 r. des Croisiers 14000 Caen",
        "stars": "1"
    },
    {
        "name": "Château de Codignat",
        "zipcode": "63190",
        "city": "Bort-l'Étang",
        "adress": "Bort l'Etang 63190 Bort-l'Étang",
        "stars": "1"
    },
    {
        "name": "L'Océan",
        "zipcode": "64500",
        "city": "Saint-Jean-de-Luz",
        "adress": "43 bd Thiers 64500 Saint-Jean-de-Luz",
        "stars": "1"
    },
    {
        "name": "Laurent",
        "zipcode": "75008",
        "city": "Paris",
        "adress": "41 av. Gabriel 75008 Paris",
        "stars": "1"
    },
    {
        "name": "La Roya",
        "zipcode": "20217",
        "city": "Saint-Florent",
        "adress": "plage de la Roya 20217 Saint-Florent",
        "stars": "1"
    },
    {
        "name": "La Robe",
        "zipcode": "85600",
        "city": "Montaigu",
        "adress": "3 pl. Reveillère-Lepeaux 85600 Montaigu",
        "stars": "1"
    },
    {
        "name": "Château Blanchard",
        "zipcode": "42140",
        "city": "Chazelles-sur-Lyon",
        "adress": "36 rte de St-Galmier 42140 Chazelles-sur-Lyon",
        "stars": "1"
    },
    {
        "name": "Pages",
        "zipcode": "75016",
        "city": "Paris",
        "adress": "4 r. Auguste-Vacquerie 75016 Paris",
        "stars": "1"
    },
    {
        "name": "L'Hysope",
        "zipcode": "17220",
        "city": "La Jarrie",
        "adress": "25 r. de l'Aurore 17220 La Jarrie",
        "stars": "1"
    },
    {
        "name": "Le Pot d'Étain",
        "zipcode": "90400",
        "city": "Danjoutin",
        "adress": "4 av. de la République 90400 Danjoutin",
        "stars": "1"
    },
    {
        "name": "Les Genêts",
        "zipcode": "85470",
        "city": "Brem-sur-Mer",
        "adress": "21 bis Rue de l'Océan 85470 Brem-sur-Mer",
        "stars": "1"
    },
    {
        "name": "Lou Cigalon-Maison Martin",
        "zipcode": "06560",
        "city": "Valbonne",
        "adress": "6 bd Carnot 06560 Valbonne",
        "stars": "1"
    },
    {
        "name": "Le Château de Sable",
        "zipcode": "29840",
        "city": "Porspoder",
        "adress": "38 r. de l'Europe 29840 Porspoder",
        "stars": "1"
    },
    {
        "name": "La Ville Blanche",
        "zipcode": "22300",
        "city": "Rospez",
        "adress": "La Ville Blanche 22300 Rospez",
        "stars": "1"
    },
    {
        "name": "Auberge St-Walfrid",
        "zipcode": "57200",
        "city": "Sarreguemines",
        "adress": "58 r. de Grosbliederstroff 57200 Sarreguemines",
        "stars": "1"
    },
    {
        "name": "Jérémy Galvan",
        "zipcode": "69005",
        "city": "Lyon 05",
        "adress": "Rue du Boeuf 69005 Lyon 05",
        "stars": "1"
    },
    {
        "name": "L'Aromate",
        "zipcode": "06000",
        "city": "Nice",
        "adress": "2 r. Gustave Deloye 06000 Nice",
        "stars": "1"
    },
    {
        "name": "Palégrié",
        "zipcode": "38250",
        "city": "Corrençon-en-Vercors",
        "adress": "Les Ritons 38250 Corrençon-en-Vercors",
        "stars": "1"
    },
    {
        "name": "Garopapilles",
        "zipcode": "33000",
        "city": "Bordeaux",
        "adress": "62 r. Abbé-de-L'Epée 33000 Bordeaux",
        "stars": "1"
    },
    {
        "name": "La Table by La Villa",
        "zipcode": "20260",
        "city": "Calvi",
        "adress": "chemin de Notre-Dame-de-la-Serra 20260 Calvi",
        "stars": "1"
    },
    {
        "name": "Le Mascaret",
        "zipcode": "50560",
        "city": "Blainville-sur-Mer",
        "adress": "1 r. de Bas 50560 Blainville-sur-Mer",
        "stars": "1"
    },
    {
        "name": "Les Clefs d'Argent",
        "zipcode": "40000",
        "city": "Mont-de-Marsan",
        "adress": "333 Avenue des Martyrs de la Résistance 40000 Mont-de-Marsan",
        "stars": "1"
    },
    {
        "name": "Le Chiberta",
        "zipcode": "75008",
        "city": "Paris 08",
        "adress": "3 Rue Arsène Houssaye 75008 Paris 08",
        "stars": "1"
    },
    {
        "name": "Lasserre",
        "zipcode": "75008",
        "city": "Paris 08",
        "adress": "17 Avenue F. -D. -Roosevelt 75008 Paris 08",
        "stars": "1"
    },
    {
        "name": "La Vague d'Or",
        "zipcode": "83990",
        "city": "Saint-Tropez",
        "adress": "Plage de Bouillabaisse 83990 Saint-Tropez",
        "stars": "3"
    },
    {
        "name": "Numéro 3",
        "zipcode": "78490",
        "city": "Le Tremblay-sur-Mauldre",
        "adress": "3 rue du Général de Gaulle 78490 Le Tremblay-sur-Mauldre",
        "stars": "1"
    },
    {
        "name": "Takao Takano",
        "zipcode": "69006",
        "city": "Lyon 06",
        "adress": "33 Rue Malesherbes 69006 Lyon 06",
        "stars": "2"
    },
    {
        "name": "Auberge St-Laurent",
        "zipcode": "68510",
        "city": "Sierentz",
        "adress": "1 rue Fontaine 68510 Sierentz",
        "stars": "1"
    },
    {
        "name": "Le Clair de la Plume",
        "zipcode": "26230",
        "city": "Grignan",
        "adress": "2 Place du Mail 26230 Grignan",
        "stars": "1"
    },
    {
        "name": "Auberge de l'Abbaye",
        "zipcode": "01500",
        "city": "Ambronay",
        "adress": "47 place des anciens Combattants 01500 Ambronay",
        "stars": "1"
    },
    {
        "name": "Lucas Carton",
        "zipcode": "75008",
        "city": "Paris 08",
        "adress": "9 pl. de la Madeleine 75008 Paris 08",
        "stars": "1"
    },
    {
        "name": "Dominique Bucaille",
        "zipcode": "04100",
        "city": "Manosque",
        "adress": "715 av. des Savels 04100 Manosque",
        "stars": "1"
    },
    {
        "name": "Le France",
        "zipcode": "25130",
        "city": "VILLERS-LE-LAC",
        "adress": "8 place Cupillard 25130 VILLERS-LE-LAC",
        "stars": "1"
    },
    {
        "name": "La Gourmandière - La Table d'Olivier",
        "zipcode": "56000",
        "city": "Vannes",
        "adress": "D126 56000 Vannes",
        "stars": "1"
    },
    {
        "name": "AM par Alexandre Mazzia",
        "zipcode": "13008",
        "city": "Marseille",
        "adress": "9 rue François Rocca 13008 Marseille",
        "stars": "1"
    },
    {
        "name": "Grand Hôtel du Lion d'Or",
        "zipcode": "41200",
        "city": "Romorantin-Lanthenay",
        "adress": "69 r. Clemenceau 41200 Romorantin-Lanthenay",
        "stars": "1"
    },
    {
        "name": "Hostellerie Jérôme",
        "zipcode": "06320",
        "city": "La Turbie",
        "adress": "20 r. Comte de Cessole 06320 La Turbie",
        "stars": "2"
    },
    {
        "name": "Château Cordeillan-Bages",
        "zipcode": "33250",
        "city": "Pauillac",
        "adress": "Route des châteaux 33250 Pauillac",
        "stars": "1"
    },
    {
        "name": "René et Maxime Meilleur",
        "zipcode": "73440",
        "city": "Saint-Martin-de-Belleville",
        "adress": "Saint Marcel 73440 Saint-Martin-de-Belleville",
        "stars": "3"
    },
    {
        "name": "La Grignotière",
        "zipcode": "59590",
        "city": "Raismes",
        "adress": "6 Rue Jean Jaures 59590 Raismes",
        "stars": "1"
    },
    {
        "name": "Le Gambetta",
        "zipcode": "49400",
        "city": "Saumur",
        "adress": "12 r. Gambetta 49400 Saumur",
        "stars": "1"
    },
    {
        "name": "La Cachette",
        "zipcode": "26000",
        "city": "Valence",
        "adress": "Rue des Cévennes 26000 Valence",
        "stars": "1"
    },
    {
        "name": "La Marine",
        "zipcode": "50270",
        "city": "Barneville-Carteret",
        "adress": "11 r. de Paris 50270 Barneville-Carteret",
        "stars": "1"
    },
    {
        "name": "Le Haut-Allier",
        "zipcode": "43580",
        "city": "Alleyras",
        "adress": "LE PONT D ALLEYRAS 43580 Alleyras",
        "stars": "1"
    },
    {
        "name": "Hostellerie Bérard",
        "zipcode": "83740",
        "city": "LA-CADIERE-D'AZUR",
        "adress": "Avenue Gabriel-Péri 83740 LA-CADIERE-D'AZUR",
        "stars": "1"
    },
    {
        "name": "Les Fresques",
        "zipcode": "74500",
        "city": "Évian-les-Bains",
        "adress": "13 Avenue des Mateirons 74500 Évian-les-Bains",
        "stars": "1"
    },
    {
        "name": "Le Bec au Cauchois",
        "zipcode": "76540",
        "city": "Valmont",
        "adress": "22 Rue André Fiquet 76540 Valmont",
        "stars": "1"
    },
    {
        "name": "La Table Breizh Café",
        "zipcode": "35260",
        "city": "Cancale",
        "adress": "7 quai Thomas 35260 Cancale",
        "stars": "1"
    },
    {
        "name": "Racine",
        "zipcode": "51100",
        "city": "Reims",
        "adress": "6 pl. Godinot 51100 Reims",
        "stars": "1"
    },
    {
        "name": "Le Pousse-Pied",
        "zipcode": "85360",
        "city": "La Tranche-sur-Mer",
        "adress": "84 bd des Vendéens 85360 La Tranche-sur-Mer",
        "stars": "1"
    },
    {
        "name": "Garance",
        "zipcode": "75007",
        "city": "Paris",
        "adress": "34 r. St-Dominique 75007 Paris",
        "stars": "1"
    },
    {
        "name": "La Table de la Bergerie",
        "zipcode": "49380",
        "city": "Champ-sur-Layon",
        "adress": "La Bergerie 49380 Champ-sur-Layon",
        "stars": "1"
    },
    {
        "name": "Pèir",
        "zipcode": "84220",
        "city": "Gordes",
        "adress": "r. de la Combe 84220 Gordes",
        "stars": "1"
    },
    {
        "name": "Le Cinq",
        "zipcode": "75008",
        "city": "Paris 08",
        "adress": "31 av. George V 75008 Paris 08",
        "stars": "3"
    },
    {
        "name": "Les Cèdres",
        "zipcode": "26600",
        "city": "Granges-les-Beaumont",
        "adress": "25 Rue Henri MACHON 26600 Granges-les-Beaumont",
        "stars": "2"
    },
    {
        "name": "Auberge du Paradis",
        "zipcode": "71570",
        "city": "Saint-Amour-Bellevue",
        "adress": "Le Plâtre-Durand 71570 Saint-Amour-Bellevue",
        "stars": "1"
    },
    {
        "name": "L'Émulsion",
        "zipcode": "38080",
        "city": "Saint-Alban-de-Roche",
        "adress": "57 rte de Lyon 38080 Saint-Alban-de-Roche",
        "stars": "1"
    },
    {
        "name": "La Barbacane",
        "zipcode": "11000",
        "city": "Carcassonne",
        "adress": "Place Auguste-Pierre-Pont 11000 Carcassonne",
        "stars": "1"
    },
    {
        "name": "Azimut",
        "zipcode": "73120",
        "city": "Courchevel-Saint-Bon",
        "adress": "273 r. de la Madelon 73120 Courchevel-Saint-Bon",
        "stars": "1"
    },
    {
        "name": "Assiette Champenoise",
        "zipcode": "51430",
        "city": "Tinqueux",
        "adress": "40 av. Paul Vaillant-Couturier 51430 Tinqueux",
        "stars": "3"
    },
    {
        "name": "Le Marcq",
        "zipcode": "59700",
        "city": "Marcq-en-Barœul",
        "adress": "944 av. de la République 59700 Marcq-en-Barœul",
        "stars": "1"
    },
    {
        "name": "Le Pavillon",
        "zipcode": "62520",
        "city": "Le Touquet-Paris-Plage",
        "adress": "av. du Verger 62520 Le Touquet-Paris-Plage",
        "stars": "1"
    },
    {
        "name": "Le Clos St-Pierre",
        "zipcode": "06650",
        "city": "Le Rouret",
        "adress": "pl. de la Mairie 06650 Le Rouret",
        "stars": "1"
    },
    {
        "name": "U Santa Marina",
        "zipcode": "20137",
        "city": "Porto-Vecchio",
        "adress": "Marina di Santa Giulia 20137 Porto-Vecchio",
        "stars": "1"
    },
    {
        "name": "Château de Vauchoux",
        "zipcode": "70170",
        "city": "Vauchoux",
        "adress": " 70170 Vauchoux",
        "stars": "1"
    },
    {
        "name": "Le Grand Restaurant - Jean-François Piège",
        "zipcode": "75008",
        "city": "Paris",
        "adress": "7 r. d'Aguesseau 75008 Paris",
        "stars": "2"
    },
    {
        "name": "Rodolphe",
        "zipcode": "76000",
        "city": "Rouen",
        "adress": "35 r. Percière 76000 Rouen",
        "stars": "1"
    },
    {
        "name": "Auberge Le Prieuré",
        "zipcode": "47310",
        "city": "Moirax",
        "adress": "4 Grand'Rue 47310 Moirax",
        "stars": "1"
    },
    {
        "name": "Le Pêché Gourmand",
        "zipcode": "05100",
        "city": "Briançon",
        "adress": "2 rte de Gap 05100 Briançon",
        "stars": "1"
    },
    {
        "name": "Saturne",
        "zipcode": "75002",
        "city": "Paris",
        "adress": "17 r. N.-D.-des-Victoires 75002 Paris",
        "stars": "1"
    },
    {
        "name": "Château de la Treyne",
        "zipcode": "46200",
        "city": "Lacave",
        "adress": " 46200 Lacave",
        "stars": "1"
    },
    {
        "name": "L'Orée de la Forêt",
        "zipcode": "60600",
        "city": "Étouy",
        "adress": "255 r. de la Forêt 60600 Étouy",
        "stars": "1"
    },
    {
        "name": "Gaya Rive Gauche par Pierre Gagnaire",
        "zipcode": "75007",
        "city": "Paris",
        "adress": "44 r. du Bac 75007 Paris",
        "stars": "1"
    },
    {
        "name": "Table - Bruno Verjus",
        "zipcode": "75012",
        "city": "Paris",
        "adress": "3 r. de Prague 75012 Paris",
        "stars": "1"
    },
    {
        "name": "ES",
        "zipcode": "75007",
        "city": "Paris",
        "adress": "91 r. de Grenelle 75007 Paris",
        "stars": "1"
    },
    {
        "name": "Au 14 Février",
        "zipcode": "71570",
        "city": "Saint-Amour-Bellevue",
        "adress": "Le Plâtre-Durand 71570 Saint-Amour-Bellevue",
        "stars": "2"
    },
    {
        "name": "Haut Bonheur de la Table",
        "zipcode": "59670",
        "city": "Cassel",
        "adress": "18 Grand-Place 59670 Cassel",
        "stars": "1"
    },
    {
        "name": "Les Pyrénées",
        "zipcode": "64220",
        "city": "Saint-Jean-Pied-de-Port",
        "adress": "19 pl. Ch.-de-Gaulle 64220 Saint-Jean-Pied-de-Port",
        "stars": "1"
    },
    {
        "name": "Apicius",
        "zipcode": "75008",
        "city": "Paris",
        "adress": "20 r. d'Artois 75008 Paris",
        "stars": "1"
    },
    {
        "name": "Palm Beach",
        "zipcode": "20000",
        "city": "Ajaccio",
        "adress": "route des Iles Sanguinaires 20000 Ajaccio",
        "stars": "1"
    },
    {
        "name": "Intuition",
        "zipcode": "50000",
        "city": "Saint-Lô",
        "adress": "1 r. Alsace-Lorraine 50000 Saint-Lô",
        "stars": "1"
    },
    {
        "name": "St-James Paris",
        "zipcode": "75116",
        "city": "Paris",
        "adress": "43 av. Bugeaud 75116 Paris",
        "stars": "1"
    },
    {
        "name": "La Bonne Auberge",
        "zipcode": "57350",
        "city": "Stiring-Wendel",
        "adress": "15 r. Nationale 57350 Stiring-Wendel",
        "stars": "1"
    },
    {
        "name": "L'Éveil des Sens",
        "zipcode": "53100",
        "city": "Mayenne",
        "adress": "429 bd Paul-Lintier 53100 Mayenne",
        "stars": "1"
    },
    {
        "name": "Le Neuvième Art",
        "zipcode": "69006",
        "city": "Lyon",
        "adress": "173 r. Cuvier 69006 Lyon",
        "stars": "2"
    },
    {
        "name": "L'Alchémille",
        "zipcode": "68240",
        "city": "Kaysersberg",
        "adress": "53 rte de Lapoutroie 68240 Kaysersberg",
        "stars": "1"
    },
    {
        "name": "Gavroche",
        "zipcode": "67000",
        "city": "Strasbourg",
        "adress": "4 r. Klein 67000 Strasbourg",
        "stars": "1"
    },
    {
        "name": "Le Moulin des Quatre Saisons",
        "zipcode": "72200",
        "city": "La Flèche",
        "adress": "r. Gallieni 72200 La Flèche",
        "stars": "1"
    },
    {
        "name": "Les Tables de Gaspard",
        "zipcode": "05600",
        "city": "St-Crépin",
        "adress": "r. Principale 05600 St-Crépin",
        "stars": "1"
    },
    {
        "name": "Henri et Joseph",
        "zipcode": "56100",
        "city": "Lorient",
        "adress": "4 r. Léo-le-Bourgo 56100 Lorient",
        "stars": "1"
    },
    {
        "name": "Le Sérac",
        "zipcode": "74170",
        "city": "Saint-Gervais-les-Bains",
        "adress": "22 r. de la Comtesse 74170 Saint-Gervais-les-Bains",
        "stars": "1"
    },
    {
        "name": "Val d'Auge",
        "zipcode": "59910",
        "city": "Bondues",
        "adress": "805 av. du Gén.-de-Gaulle 59910 Bondues",
        "stars": "1"
    },
    {
        "name": "Yam'Tcha",
        "zipcode": "75001",
        "city": "Paris",
        "adress": "121 r. St-Honoré 75001 Paris",
        "stars": "1"
    },
    {
        "name": "Le Montgomerie",
        "zipcode": "73120",
        "city": "Courchevel 1850",
        "adress": "356 rte de l'Altiport 73120 Courchevel 1850",
        "stars": "2"
    },
    {
        "name": "Auberge St-Jean",
        "zipcode": "33420",
        "city": "Saint-Jean-de-Blaignac",
        "adress": "8 r. du Pont 33420 Saint-Jean-de-Blaignac",
        "stars": "1"
    },
    {
        "name": "Vieux Pont",
        "zipcode": "12390",
        "city": "Belcastel",
        "adress": " 12390 Belcastel",
        "stars": "1"
    },
    {
        "name": "Hostellerie Les Gorges de Pennafort",
        "zipcode": "83830",
        "city": "Callas",
        "adress": "8660 RD 25 83830 Callas",
        "stars": "1"
    },
    {
        "name": "Le Cerisier",
        "zipcode": "62840",
        "city": "LAVENTIE",
        "adress": "3 rue de la Gare 62840 LAVENTIE",
        "stars": "1"
    },
    {
        "name": "Une Table au Sud",
        "zipcode": "13002",
        "city": "Marseille",
        "adress": "2 quai du Port 13002 Marseille",
        "stars": "1"
    },
    {
        "name": "L'Auberge Basque",
        "zipcode": "64310",
        "city": "Saint-Pée-sur-Nivelle",
        "adress": "quartier Helbarron 64310 Saint-Pée-sur-Nivelle",
        "stars": "1"
    },
    {
        "name": "Mon Plaisir",
        "zipcode": "25190",
        "city": "Chamesol",
        "adress": "22 lieu-dit Journal 25190 Chamesol",
        "stars": "1"
    },
    {
        "name": "Le Bouche à Oreille",
        "zipcode": "91150",
        "city": "Boutervilliers",
        "adress": "11 r. de la Chapelle 91150 Boutervilliers",
        "stars": "1"
    },
    {
        "name": "Yoann Conte",
        "zipcode": "74290",
        "city": "Veyrier-du-Lac",
        "adress": "13 Vieille-Route-des-Pensières 74290 Veyrier-du-Lac",
        "stars": "2"
    },
    {
        "name": "Château de Mirambeau",
        "zipcode": "17150",
        "city": "Mirambeau",
        "adress": "1 Avenue des Comtes Duchatel 17150 Mirambeau",
        "stars": "1"
    },
    {
        "name": "Helen",
        "zipcode": "75008",
        "city": "Paris",
        "adress": "3 r.Berryer 75008 Paris",
        "stars": "1"
    },
    {
        "name": "Le Pressoir d'Argent - Gordon Ramsay",
        "zipcode": "33000",
        "city": "Bordeaux",
        "adress": "2,5 Place de la Comédie 33000 Bordeaux",
        "stars": "2"
    },
    {
        "name": "La Fourchette des Ducs",
        "zipcode": "67210",
        "city": "Obernai",
        "adress": "6 r. de la Gare 67210 Obernai",
        "stars": "2"
    },
    {
        "name": "Le Refuge des Gourmets",
        "zipcode": "74140",
        "city": "Machilly",
        "adress": "90 route des Framboises 74140 Machilly",
        "stars": "1"
    },
    {
        "name": "L'Auberge des Glazicks",
        "zipcode": "29550",
        "city": "PLOMODIERN",
        "adress": "7 rue de la Plage 29550 PLOMODIERN",
        "stars": "2"
    },
    {
        "name": "Le Puits St-Jacques",
        "zipcode": "32600",
        "city": "Pujaudran",
        "adress": "av. Victor-Capoul 32600 Pujaudran",
        "stars": "2"
    },
    {
        "name": "Kei",
        "zipcode": "75001",
        "city": "Paris 01",
        "adress": "5 rue du Coq-Héron 75001 Paris 01",
        "stars": "2"
    },
    {
        "name": "Le Bénaton",
        "zipcode": "21200",
        "city": "BEAUNE",
        "adress": "25 Rue du Faubourg-Bretonnière 21200 BEAUNE",
        "stars": "1"
    },
    {
        "name": "Le Belvédère",
        "zipcode": "12340",
        "city": "Bozouls",
        "adress": "11 rte du Maquis-Jean-Pierre 12340 Bozouls",
        "stars": "1"
    },
    {
        "name": "La Rotonde",
        "zipcode": "69890",
        "city": "LA-TOUR-DE-SALVAGNY",
        "adress": "200 avenue du Casino 69890 LA-TOUR-DE-SALVAGNY",
        "stars": "1"
    },
    {
        "name": "Guy Lassausaie",
        "zipcode": "69380",
        "city": "Chasselay",
        "adress": "r. de Belle-Sise 69380 Chasselay",
        "stars": "2"
    },
    {
        "name": "Le Skiff Club",
        "zipcode": "33260",
        "city": "La Teste-de-Buch",
        "adress": "1 av. Louis-Gaume 33260 La Teste-de-Buch",
        "stars": "1"
    },
    {
        "name": "Le George",
        "zipcode": "75008",
        "city": "Paris",
        "adress": "31 Avenue George V 75008 Paris",
        "stars": "1"
    },
    {
        "name": "Hexagone",
        "zipcode": "75016",
        "city": "Paris",
        "adress": "85 Avenue Kléber 75016 Paris",
        "stars": "1"
    },
    {
        "name": "La Table des Cordeliers",
        "zipcode": "32100",
        "city": "Condom",
        "adress": "1 r. des Cordeliers 32100 Condom",
        "stars": "1"
    },
    {
        "name": "Passage 53",
        "zipcode": "75002",
        "city": "Paris",
        "adress": "53 passage des Panoramas 75002 Paris",
        "stars": "2"
    },
    {
        "name": "Maison Clovis",
        "zipcode": "69006",
        "city": "Lyon",
        "adress": "19 bd Brotteaux 69006 Lyon",
        "stars": "1"
    },
    {
        "name": "Auberge de l'Ill",
        "zipcode": "68970",
        "city": "Illhaeusern",
        "adress": "2 rue de Collonges-au-Mont d'Or 68970 Illhaeusern",
        "stars": "3"
    },
    {
        "name": "Ithurria",
        "zipcode": "64250",
        "city": "Ainhoa",
        "adress": "pl. du Fronton 64250 Ainhoa",
        "stars": "1"
    },
    {
        "name": "Le Meurice Alain Ducasse",
        "zipcode": "75001",
        "city": "Paris",
        "adress": "228 Rue de Rivoli 75001 Paris",
        "stars": "2"
    },
    {
        "name": "La Bonne Étape",
        "zipcode": "04160",
        "city": "Château-Arnoux",
        "adress": "chemin du lac 04160 Château-Arnoux",
        "stars": "1"
    },
    {
        "name": "Le Prieuré",
        "zipcode": "42820",
        "city": "Ambierle",
        "adress": "r. de la Mairie 42820 Ambierle",
        "stars": "1"
    },
    {
        "name": "Au 14 Février",
        "zipcode": "36100",
        "city": "Saint-Valentin",
        "adress": "2 r. du Portail 36100 Saint-Valentin",
        "stars": "1"
    },
    {
        "name": "Stéphane Tournié - Les Jardins de l'Opéra",
        "zipcode": "31000",
        "city": "Toulouse",
        "adress": "1 place du Capitole 31000 Toulouse",
        "stars": "1"
    },
    {
        "name": "L'Arôme",
        "zipcode": "75008",
        "city": "Paris 08",
        "adress": "3 rue St-Philippe-du-Roule 75008 Paris 08",
        "stars": "1"
    },
    {
        "name": "1920",
        "zipcode": "74120",
        "city": "Megève",
        "adress": "373 chemin des follières 74120 Megève",
        "stars": "2"
    },
    {
        "name": "Auberge du Vert Mont",
        "zipcode": "59299",
        "city": "Boeschepe",
        "adress": "1318 r. du Mont-Noir 59299 Boeschepe",
        "stars": "1"
    },
    {
        "name": "Rackham",
        "zipcode": "29680",
        "city": "ROSCOFF",
        "adress": "27 pl. Lacaze Duthiers rčs de l'église 29680 ROSCOFF",
        "stars": "1"
    },
    {
        "name": "Le Strasbourg",
        "zipcode": "57230",
        "city": "Bitche",
        "adress": "24 r. du Col. -Teyssier 57230 Bitche",
        "stars": "1"
    },
    {
        "name": "Le Petit Nice",
        "zipcode": "13007",
        "city": "Marseille 07",
        "adress": "Anse de Maldormé - Corniche J. F. Kennedy 13007 Marseille 07",
        "stars": "3"
    },
    {
        "name": "Auberge de la Charme",
        "zipcode": "21370",
        "city": "Prenois",
        "adress": "12 r. de la Charme 21370 Prenois",
        "stars": "1"
    },
    {
        "name": "La Table de l'Alpaga",
        "zipcode": "74120",
        "city": "Megève",
        "adress": "66 Allée des Marmousets 74120 Megève",
        "stars": "1"
    },
    {
        "name": "Le Musigny",
        "zipcode": "59300",
        "city": "Valenciennes",
        "adress": "90 Avenue de Liege 59300 Valenciennes",
        "stars": "1"
    },
    {
        "name": "L'O des Vignes",
        "zipcode": "71960",
        "city": "Fuissé",
        "adress": "r. du Bourg 71960 Fuissé",
        "stars": "1"
    },
    {
        "name": "Hostellerie de Plaisance",
        "zipcode": "33330",
        "city": "Saint-Emilion",
        "adress": "5 place du Clocher 33330 Saint-Emilion",
        "stars": "2"
    },
    {
        "name": "La Table de Manville",
        "zipcode": "13520",
        "city": "LES-BAUX-DE-PROVENCE",
        "adress": "Domaine de Manville - D27 13520 LES-BAUX-DE-PROVENCE",
        "stars": "1"
    },
    {
        "name": "La Renaissance",
        "zipcode": "61200",
        "city": "Argentan",
        "adress": "20 av. 2e-Division-Blindée 61200 Argentan",
        "stars": "1"
    },
    {
        "name": "L'Atelier du Peintre",
        "zipcode": "68000",
        "city": "Colmar",
        "adress": "1 Rue Schongauer 68000 Colmar",
        "stars": "1"
    },
    {
        "name": "Les Ducs de Lorraine",
        "zipcode": "88000",
        "city": "Épinal",
        "adress": "5 av. Provence 88000 Épinal",
        "stars": "1"
    },
    {
        "name": "Le Champ des Lunes",
        "zipcode": "84360",
        "city": "Lauris",
        "adress": "route de Roquefraîche 84360 Lauris",
        "stars": "1"
    },
    {
        "name": "Guy Savoy",
        "zipcode": "75006",
        "city": "Paris",
        "adress": "Monnaie de Paris11 Quai de Conti 75006 Paris",
        "stars": "3"
    },
    {
        "name": "Relais Louis XIII",
        "zipcode": "75006",
        "city": "Paris",
        "adress": "8 Rue des Grands Augustins 75006 Paris",
        "stars": "1"
    },
    {
        "name": "Auberge des Saints Pères",
        "zipcode": "93600",
        "city": "Aulnay-sous-Bois",
        "adress": "212 av. de Nonneville 93600 Aulnay-sous-Bois",
        "stars": "1"
    },
    {
        "name": "La Table",
        "zipcode": "59000",
        "city": "Lille",
        "adress": "32 Rue de la Barre 59000 Lille",
        "stars": "1"
    },
    {
        "name": "La Table d'Uzès",
        "zipcode": "30700",
        "city": "Uzès",
        "adress": "18 rue du Docteur Blanchard 30700 Uzès",
        "stars": "1"
    },
    {
        "name": "Le Moulin de la Gorce",
        "zipcode": "87800",
        "city": "La Roche-l'Abeille",
        "adress": "D17 87800 La Roche-l'Abeille",
        "stars": "1"
    },
    {
        "name": "Le 1947",
        "zipcode": "73120",
        "city": "Courchevel 1850",
        "adress": "Cheval Blanc Courchevel - Le Jardin Alpin 73120 Courchevel 1850",
        "stars": "3"
    },
    {
        "name": "Le Chiquito",
        "zipcode": "95540",
        "city": "Méry-sur-Oise",
        "adress": "3 r. de l'Oise, La Bonneville 95540 Méry-sur-Oise",
        "stars": "1"
    },
    {
        "name": "Logis de la Cadène",
        "zipcode": "33330",
        "city": "Saint Emilion",
        "adress": "Place du Marche au Bois 33330 Saint Emilion",
        "stars": "1"
    },
    {
        "name": "Pierre",
        "zipcode": "71000",
        "city": "Mâcon",
        "adress": "7-9 rue Joseph Dufour 71000 Mâcon",
        "stars": "1"
    },
    {
        "name": "Albert 1er",
        "zipcode": "74400",
        "city": "Chamonix-Mont-Blanc",
        "adress": "38 rte du Bouchet 74400 Chamonix-Mont-Blanc",
        "stars": "2"
    },
    {
        "name": "La Matelote",
        "zipcode": "62200",
        "city": "BOULOGNE-SUR-MER",
        "adress": "80 Boulevard Ste Beuve 62200 BOULOGNE-SUR-MER",
        "stars": "1"
    },
    {
        "name": "Le Pré - Xavier Beaudiment",
        "zipcode": "63830",
        "city": "Durtol",
        "adress": "3 Route de la Baraque 63830 Durtol",
        "stars": "2"
    },
    {
        "name": "Apicius",
        "zipcode": "63000",
        "city": "Clermont-Ferrand",
        "adress": "Marché Saint Pierre 1 étage 63000 Clermont-Ferrand",
        "stars": "1"
    },
    {
        "name": "La Passagère",
        "zipcode": "06160",
        "city": "Juan-les-Pins",
        "adress": "33 boulevard E. -Baudoin 06160 Juan-les-Pins",
        "stars": "1"
    }
]